[
    {
        "OBJECT_NAME": "IRIDIUM 122",
        "OBJECT_ID": "2017-061C",
        "EPOCH": "2025-05-15T12:32:02.730048",
        "MEAN_MOTION": 14.34217747,
        "ECCENTRICITY": 0.0002227,
        "INCLINATION": 86.4021,
        "RA_OF_ASC_NODE": 191.3627,
        "ARG_OF_PERICENTER": 98.0621,
        "MEAN_ANOMALY": 262.0828,
        "EPHEMERIS_TYPE": 0,
        "CLASSIFICATION_TYPE": "U",
        "NORAD_CAT_ID": 42957,
        "ELEMENT_SET_NO": 999,
        "REV_AT_EPOCH": 39778,
        "BSTAR": -6.24e-06,
        "MEAN_MOTION_DOT": 2e-08,
        "MEAN_MOTION_DDOT": 0,
        "period": 1.668815248,
        "radius": 7141439.254,
        "altitude": 763.4392535,
        "angle": 144.0053824
    },
    {
        "OBJECT_NAME": "IRIDIUM 129",
        "OBJECT_ID": "2017-061D",
        "EPOCH": "2025-05-15T13:08:34.446624",
        "MEAN_MOTION": 14.34216389,
        "ECCENTRICITY": 0.0001932,
        "INCLINATION": 86.402,
        "RA_OF_ASC_NODE": 191.4145,
        "ARG_OF_PERICENTER": 89.2359,
        "MEAN_ANOMALY": 270.9058,
        "EPHEMERIS_TYPE": 0,
        "CLASSIFICATION_TYPE": "U",
        "NORAD_CAT_ID": 42958,
        "ELEMENT_SET_NO": 999,
        "REV_AT_EPOCH": 39780,
        "BSTAR": 9.67e-05,
        "MEAN_MOTION_DOT": 2.91e-06,
        "MEAN_MOTION_DDOT": 0,
        "period": 1.668816828,
        "radius": 7141443.761,
        "altitude": 763.4437615,
        "angle": 144.0051836
    },
    {
        "OBJECT_NAME": "IRIDIUM 119",
        "OBJECT_ID": "2017-061E",
        "EPOCH": "2025-05-15T14:03:24.576768",
        "MEAN_MOTION": 14.34213922,
        "ECCENTRICITY": 0.0002137,
        "INCLINATION": 86.4018,
        "RA_OF_ASC_NODE": 191.393,
        "ARG_OF_PERICENTER": 100.0063,
        "MEAN_ANOMALY": 260.1374,
        "EPHEMERIS_TYPE": 0,
        "CLASSIFICATION_TYPE": "U",
        "NORAD_CAT_ID": 42959,
        "ELEMENT_SET_NO": 999,
        "REV_AT_EPOCH": 39782,
        "BSTAR": 8.49e-05,
        "MEAN_MOTION_DOT": 2.57e-06,
        "MEAN_MOTION_DDOT": 0,
        "period": 1.668819698,
        "radius": 7141451.951,
        "altitude": 763.4519509,
        "angle": 144.0048224
    },
    {
        "OBJECT_NAME": "IRIDIUM 107",
        "OBJECT_ID": "2017-061F",
        "EPOCH": "2025-05-15T12:50:18.777120",
        "MEAN_MOTION": 14.34217878,
        "ECCENTRICITY": 0.0002534,
        "INCLINATION": 86.402,
        "RA_OF_ASC_NODE": 191.4331,
        "ARG_OF_PERICENTER": 105.2386,
        "MEAN_ANOMALY": 254.909,
        "EPHEMERIS_TYPE": 0,
        "CLASSIFICATION_TYPE": "U",
        "NORAD_CAT_ID": 42960,
        "ELEMENT_SET_NO": 999,
        "REV_AT_EPOCH": 39783,
        "BSTAR": 1.51e-05,
        "MEAN_MOTION_DOT": 6.2e-07,
        "MEAN_MOTION_DDOT": 0,
        "period": 1.668815095,
        "radius": 7141438.819,
        "altitude": 763.4388187,
        "angle": 144.0054016
    },
    {
        "OBJECT_NAME": "IRIDIUM 132",
        "OBJECT_ID": "2017-061G",
        "EPOCH": "2025-05-15T14:39:54.754560",
        "MEAN_MOTION": 14.34217906,
        "ECCENTRICITY": 0.0002368,
        "INCLINATION": 86.4018,
        "RA_OF_ASC_NODE": 191.3837,
        "ARG_OF_PERICENTER": 97.3984,
        "MEAN_ANOMALY": 262.7481,
        "EPHEMERIS_TYPE": 0,
        "CLASSIFICATION_TYPE": "U",
        "NORAD_CAT_ID": 42961,
        "ELEMENT_SET_NO": 999,
        "REV_AT_EPOCH": 39783,
        "BSTAR": 6.19e-06,
        "MEAN_MOTION_DOT": 3.7e-07,
        "MEAN_MOTION_DDOT": 0,
        "period": 1.668815063,
        "radius": 7141438.726,
        "altitude": 763.4387257,
        "angle": 144.0054057
    },
    {
        "OBJECT_NAME": "IRIDIUM 136",
        "OBJECT_ID": "2017-061H",
        "EPOCH": "2025-05-16T04:49:18.729408",
        "MEAN_MOTION": 14.34217583,
        "ECCENTRICITY": 0.0002104,
        "INCLINATION": 86.4021,
        "RA_OF_ASC_NODE": 191.1421,
        "ARG_OF_PERICENTER": 100.6059,
        "MEAN_ANOMALY": 259.5374,
        "EPHEMERIS_TYPE": 0,
        "CLASSIFICATION_TYPE": "U",
        "NORAD_CAT_ID": 42962,
        "ELEMENT_SET_NO": 999,
        "REV_AT_EPOCH": 39793,
        "BSTAR": -1.25e-05,
        "MEAN_MOTION_DOT": -1.5e-07,
        "MEAN_MOTION_DDOT": 0,
        "period": 1.668815438,
        "radius": 7141439.798,
        "altitude": 763.439798,
        "angle": 144.0053584
    },
    {
        "OBJECT_NAME": "IRIDIUM 139",
        "OBJECT_ID": "2017-061J",
        "EPOCH": "2025-05-16T04:58:26.752512",
        "MEAN_MOTION": 14.34217544,
        "ECCENTRICITY": 0.0002475,
        "INCLINATION": 86.4018,
        "RA_OF_ASC_NODE": 191.1948,
        "ARG_OF_PERICENTER": 99.7743,
        "MEAN_ANOMALY": 260.3732,
        "EPHEMERIS_TYPE": 0,
        "CLASSIFICATION_TYPE": "U",
        "NORAD_CAT_ID": 42963,
        "ELEMENT_SET_NO": 999,
        "REV_AT_EPOCH": 39794,
        "BSTAR": 3.94e-05,
        "MEAN_MOTION_DOT": 1.3e-06,
        "MEAN_MOTION_DDOT": 0,
        "period": 1.668815484,
        "radius": 7141439.927,
        "altitude": 763.4399274,
        "angle": 144.0053527
    },
    {
        "OBJECT_NAME": "IRIDIUM 125",
        "OBJECT_ID": "2017-061K",
        "EPOCH": "2025-05-15T13:35:58.464096",
        "MEAN_MOTION": 14.34216424,
        "ECCENTRICITY": 0.0002073,
        "INCLINATION": 86.4023,
        "RA_OF_ASC_NODE": 191.5158,
        "ARG_OF_PERICENTER": 109.6989,
        "MEAN_ANOMALY": 250.443,
        "EPHEMERIS_TYPE": 0,
        "CLASSIFICATION_TYPE": "U",
        "NORAD_CAT_ID": 42964,
        "ELEMENT_SET_NO": 999,
        "REV_AT_EPOCH": 39786,
        "BSTAR": 7.66e-05,
        "MEAN_MOTION_DOT": 2.34e-06,
        "MEAN_MOTION_DDOT": 0,
        "period": 1.668816787,
        "radius": 7141443.645,
        "altitude": 763.4436453,
        "angle": 144.0051887
    },
    {
        "OBJECT_NAME": "IRIDIUM 135",
        "OBJECT_ID": "2017-083A",
        "EPOCH": "2025-05-16T00:41:59.125056",
        "MEAN_MOTION": 14.3421749,
        "ECCENTRICITY": 0.0002315,
        "INCLINATION": 86.3946,
        "RA_OF_ASC_NODE": 128.0614,
        "ARG_OF_PERICENTER": 83.0773,
        "MEAN_ANOMALY": 277.0686,
        "EPHEMERIS_TYPE": 0,
        "CLASSIFICATION_TYPE": "U",
        "NORAD_CAT_ID": 43070,
        "ELEMENT_SET_NO": 999,
        "REV_AT_EPOCH": 38722,
        "BSTAR": -1.6e-06,
        "MEAN_MOTION_DOT": 1.5e-07,
        "MEAN_MOTION_DDOT": 0,
        "period": 1.668815547,
        "radius": 7141440.107,
        "altitude": 763.4401067,
        "angle": 144.0053448
    },
    {
        "OBJECT_NAME": "IRIDIUM 138",
        "OBJECT_ID": "2017-083B",
        "EPOCH": "2025-05-16T01:18:31.061952",
        "MEAN_MOTION": 14.34217368,
        "ECCENTRICITY": 0.0001662,
        "INCLINATION": 86.3935,
        "RA_OF_ASC_NODE": 127.7258,
        "ARG_OF_PERICENTER": 90.3283,
        "MEAN_ANOMALY": 269.8103,
        "EPHEMERIS_TYPE": 0,
        "CLASSIFICATION_TYPE": "U",
        "NORAD_CAT_ID": 43071,
        "ELEMENT_SET_NO": 999,
        "REV_AT_EPOCH": 38721,
        "BSTAR": -1.4e-05,
        "MEAN_MOTION_DOT": -1.9e-07,
        "MEAN_MOTION_DDOT": 0,
        "period": 1.668815689,
        "radius": 7141440.512,
        "altitude": 763.4405117,
        "angle": 144.005327
    },
    {
        "OBJECT_NAME": "IRIDIUM 116",
        "OBJECT_ID": "2017-083C",
        "EPOCH": "2025-05-15T12:49:35.235840",
        "MEAN_MOTION": 14.34217681,
        "ECCENTRICITY": 0.0002609,
        "INCLINATION": 86.3941,
        "RA_OF_ASC_NODE": 128.259,
        "ARG_OF_PERICENTER": 87.6044,
        "MEAN_ANOMALY": 272.5451,
        "EPHEMERIS_TYPE": 0,
        "CLASSIFICATION_TYPE": "U",
        "NORAD_CAT_ID": 43072,
        "ELEMENT_SET_NO": 999,
        "REV_AT_EPOCH": 38717,
        "BSTAR": -2.52e-06,
        "MEAN_MOTION_DOT": 1.3e-07,
        "MEAN_MOTION_DDOT": 0,
        "period": 1.668815324,
        "radius": 7141439.473,
        "altitude": 763.4394726,
        "angle": 144.0053728
    }
]